NORAD_CAT_ID,OBJECT_NAME,OBJECT_TYPE,EPOCH,MEAN_MOTION,ECCENTRICITY,INCLINATION,RA_OF_ASC_NODE,ARG_OF_PERICENTER,MEAN_ANOMALY,BSTAR,MEAN_MOTION_DOT,MEAN_MOTION_DDOT,TLE_LINE0,TLE_LINE1,TLE_LINE2,SEMIMAJOR_AXIS,PERIOD,APOGEE,PERIGEE,DECAYED
55664.0,STARLINK-5480,PAYLOAD,2023-06-08 05:00:35,15.69919682,0.000323,69.9976,199.4262,272.9184,87.1642,6.4531e-06,5.63e-06,0.0,0 STARLINK-5480,1 55664U 23021AN  23159.20874689  .00000563  00000-0  64531-5 0  9996,2 55664  69.9976 199.4262 0003230 272.9184  87.1642 15.69919682 17875,6737.264,91.724,361.305,356.953,0.0
55664.0,STARLINK-5480,PAYLOAD,2023-06-08 12:39:22,15.69908086,0.0003617,69.998,198.5308,272.4935,87.5846,-1.6458e-05,-2.19e-05,0.0,0 STARLINK-5480,1 55664U 23021AN  23159.52734364 -.00002190  00000-0 -16458-4 0  9990,2 55664  69.9980 198.5308 0003617 272.4935  87.5846 15.69908086 18236,6737.297,91.725,361.599,356.725,0.0
55664.0,STARLINK-5480,PAYLOAD,2023-06-08 20:18:07,15.69915233,0.0004094,69.9966,197.633,265.4328,94.6401,2.7812e-06,1.21e-06,0.0,0 STARLINK-5480,1 55664U 23021AN  23159.84591892  .00000121  00000-0  27812-5 0  9999,2 55664  69.9966 197.6330 0004094 265.4328  94.6401 15.69915233 17971,6737.277,91.725,361.9,356.383,0.0
55664.0,STARLINK-5480,PAYLOAD,2023-06-09 08:32:06,15.69948054,0.0003027,69.9966,196.1998,268.3143,91.7705,3.4246e-05,3.911e-05,0.0,0 STARLINK-5480,1 55664U 23021AN  23160.35562720  .00003911  00000-0  34246-4 0  9993,2 55664  69.9966 196.1998 0003027 268.3143  91.7705 15.69948054 18059,6737.183,91.723,361.087,357.008,0.0
55664.0,STARLINK-5480,PAYLOAD,2023-06-09 10:03:51,15.69948303,0.0003379,69.9959,196.0193,269.0214,91.0595,3.1389e-05,3.567e-05,0.0,0 STARLINK-5480,1 55664U 23021AN  23160.41934336  .00003567  00000-0  31389-4 0  9998,2 55664  69.9959 196.0193 0003379 269.0214  91.0595 15.69948303 18376,6737.182,91.723,361.323,356.77,0.0
55664.0,STARLINK-5480,PAYLOAD,2023-06-09 19:14:25,15.69901754,0.000309,69.9985,194.9481,273.9016,86.1826,8.996e-07,-1.04e-06,0.0,0 STARLINK-5480,1 55664U 23021AN  23160.80167944 -.00000104  00000-0  89960-6 0  9999,2 55664  69.9985 194.9481 0003090 273.9016  86.1826 15.69901754 18434,6737.315,91.725,361.262,357.098,0.0
55664.0,STARLINK-5480,PAYLOAD,2023-06-09 23:49:40,15.69903891,0.0003034,70.0,194.4099,275.9395,84.1455,-5.8111e-08,-2.19e-06,0.0,0 STARLINK-5480,1 55664U 23021AN  23160.99283074 -.00000219  00000-0 -58111-7 0  9995,2 55664  70.0000 194.4099 0003034 275.9395  84.1455 15.69903891 18154,6737.309,91.725,361.218,357.13,0.0
55664.0,STARLINK-5480,PAYLOAD,2023-06-10 12:03:41,15.69909693,0.0002652,69.9995,192.978,265.6713,94.418,1.3559e-05,1.417e-05,0.0,0 STARLINK-5480,1 55664U 23021AN  23161.50256307  .00001417  00000-0  13559-4 0  9995,2 55664  69.9995 192.9780 0002652 265.6713  94.4180 15.69909693 18547,6737.292,91.725,360.944,357.371,0.0
55664.0,STARLINK-5480,PAYLOAD,2023-06-11 01:49:25,15.69947183,0.0003498,69.9972,191.3632,269.5911,90.4884,4.6609e-06,3.48e-06,0.0,0 STARLINK-5480,1 55664U 23021AN  23162.07598989  .00000348  00000-0  46609-5 0  9998,2 55664  69.9972 191.3632 0003498 269.5911  90.4884 15.69947183 18322,6737.185,91.723,361.407,356.693,0.0
55664.0,STARLINK-5480,PAYLOAD,2023-06-11 04:52:55,15.69946845,0.0003598,69.9974,191.0062,271.7977,88.2806,8.4949e-06,8.1e-06,0.0,0 STARLINK-5480,1 55664U 23021AN  23162.20342142  .00000810  00000-0  84949-5 0  9994,2 55664  69.9974 191.0062 0003598 271.7977  88.2806 15.69946845 18655,6737.186,91.723,361.475,356.627,0.0
55664.0,STARLINK-5480,PAYLOAD,2023-06-11 10:59:57,15.69932461,0.0002916,69.9983,190.291,266.806,93.2802,-1.0546e-05,-1.481e-05,0.0,0 STARLINK-5480,1 55664U 23021AN  23162.45830006 -.00001481  00000-0 -10546-4 0  9990,2 55664  69.9983 190.2910 0002916 266.8060  93.2802 15.69932461 18694,6737.227,91.724,361.057,357.128,0.0
55664.0,STARLINK-5480,PAYLOAD,2023-06-12 11:27:59,15.69919357,0.0003277,69.9981,187.4241,276.7638,83.3185,1.7221e-05,1.858e-05,0.0,0 STARLINK-5480,1 55664U 23021AN  23163.47777128  .00001858  00000-0  17221-4 0  9991,2 55664  69.9981 187.4241 0003277 276.7638  83.3185 15.69919357 18850,6737.265,91.724,361.338,356.922,0.0
55664.0,STARLINK-5480,PAYLOAD,2023-06-13 11:56:00,15.69928274,0.0003058,69.9991,184.5581,273.1651,86.9195,4.3113e-06,3.06e-06,0.0,0 STARLINK-5480,1 55664U 23021AN  23164.49723176  .00000306  00000-0  43113-5 0  9995,2 55664  69.9991 184.5581 0003058 273.1651  86.9195 15.69928274 18701,6737.239,91.724,361.164,357.044,0.0
55664.0,STARLINK-5480,PAYLOAD,2023-06-14 18:31:04,15.69911662,0.000278,69.998,180.9765,284.9919,75.0969,1.7195e-05,1.854e-05,0.0,0 STARLINK-5480,1 55664U 23021AN  23165.77157775  .00001854  00000-0  17195-4 0  9992,2 55664  69.9980 180.9765 0002780 284.9919  75.0969 15.69911662 18904,6737.287,91.725,361.025,357.279,0.0
55664.0,STARLINK-5480,PAYLOAD,2023-06-15 02:09:49,15.69926559,0.0003225,69.9973,180.0799,271.4243,88.6583,1.1528e-06,-7.4e-07,0.0,0 STARLINK-5480,1 55664U 23021AN  23166.09015376 -.00000074  00000-0  11528-5 0  9997,2 55664  69.9973 180.0799 0003225 271.4243  88.6583 15.69926559 18958,6737.244,91.724,361.282,356.936,0.0
55664.0,STARLINK-5480,PAYLOAD,2023-06-15 09:48:34,15.69932082,0.0003051,69.9977,179.1838,270.7091,89.3755,1.1423e-05,1.161e-05,0.0,0 STARLINK-5480,1 55664U 23021AN  23166.40873098  .00001161  00000-0  11423-4 0  9995,2 55664  69.9977 179.1838 0003051 270.7091  89.3755 15.69932082 19313,6737.228,91.724,361.149,357.038,0.0
55664.0,STARLINK-5480,PAYLOAD,2023-06-15 23:34:20,15.69927287,0.0003194,69.9984,177.5723,272.8245,87.2585,1.2812e-05,1.328e-05,0.0,0 STARLINK-5480,1 55664U 23021AN  23166.98218211  .00001328  00000-0  12812-4 0  9996,2 55664  69.9984 177.5723 0003194 272.8245  87.2585 15.69927287 19092,6737.242,91.724,361.259,356.955,0.0
55664.0,STARLINK-5480,PAYLOAD,2023-06-16 10:16:37,15.69912753,0.0002824,69.998,176.3178,275.3209,84.7665,3.247e-06,1.78e-06,0.0,0 STARLINK-5480,1 55664U 23021AN  23167.42820957  .00000178  00000-0  32470-5 0  9997,2 55664  69.9980 176.3178 0002824 275.3209  84.7665 15.69912753 19167,6737.284,91.725,361.051,357.246,0.0
55664.0,STARLINK-5480,PAYLOAD,2023-06-16 17:55:22,15.69916558,0.0003282,69.9981,175.4217,273.1896,86.8924,-4.6157e-06,-7.67e-06,0.0,0 STARLINK-5480,1 55664U 23021AN  23167.74679262 -.00000767  00000-0 -46157-5 0  9996,2 55664  69.9981 175.4217 0003282 273.1896  86.8924 15.69916558 19527,6737.273,91.725,361.349,356.927,0.0
55664.0,STARLINK-5480,PAYLOAD,2023-06-17 03:05:54,15.69912962,0.0002783,69.9988,174.3467,274.0385,86.0493,-1.3337e-05,-1.815e-05,0.0,0 STARLINK-5480,1 55664U 23021AN  23168.12909994 -.00001815  00000-0 -13337-4 0  9995,2 55664  69.9988 174.3467 0002783 274.0385  86.0493 15.69912962 19581,6737.283,91.725,361.023,357.273,0.0
55664.0,STARLINK-5480,PAYLOAD,2023-06-17 09:12:54,15.69914542,0.0002575,69.999,173.6309,263.4885,96.6017,-7.4136e-06,-1.103e-05,0.0,0 STARLINK-5480,1 55664U 23021AN  23168.38396622 -.00001103  00000-0 -74136-5 0  9996,2 55664  69.9990 173.6309 0002575 263.4885  96.6017 15.69914542 19627,6737.278,91.725,360.878,357.409,0.0
55664.0,STARLINK-5480,PAYLOAD,2023-06-18 06:37:24,15.69934815,0.0002937,69.999,171.1247,260.2318,99.8546,1.3869e-05,1.456e-05,0.0,0 STARLINK-5480,1 55664U 23021AN  23169.27598101  .00001456  00000-0  13869-4 0  9995,2 55664  69.9990 171.1247 0002937 260.2318  99.8546 15.69934815 19457,6737.22,91.724,361.064,357.107,0.0
55664.0,STARLINK-5480,PAYLOAD,2023-06-18 09:40:55,15.69932735,0.0003486,69.9978,170.7657,266.7178,93.3618,1.4788e-05,1.566e-05,0.0,0 STARLINK-5480,1 55664U 23021AN  23169.40341518  .00001566  00000-0  14788-4 0  9991,2 55664  69.9978 170.7657 0003486 266.7178  93.3618 15.69932735 19782,6737.226,91.724,361.44,356.743,0.0
55664.0,STARLINK-5480,PAYLOAD,2023-06-18 17:19:41,15.69917945,0.0003257,69.9977,169.8699,266.341,93.7413,1.7888e-05,1.938e-05,0.0,0 STARLINK-5480,1 55664U 23021AN  23169.72200671  .00001938  00000-0  17888-4 0  9997,2 55664  69.9977 169.8699 0003257 266.3410  93.7413 15.69917945 19522,6737.269,91.725,361.328,356.939,0.0
55664.0,STARLINK-5480,PAYLOAD,2023-06-18 23:26:42,15.69913407,0.0003023,69.9985,169.1517,268.7595,91.3254,2.2839e-05,2.533e-05,0.0,0 STARLINK-5480,1 55664U 23021AN  23169.97687864  .00002533  00000-0  22839-4 0  9991,2 55664  69.9985 169.1517 0003023 268.7595  91.3254 15.69913407 19564,6737.282,91.725,361.183,357.11,0.0
55664.0,STARLINK-5480,PAYLOAD,2023-06-19 10:08:58,15.6991824,0.00031,69.9984,167.8977,265.6194,94.4648,2.3556e-05,2.62e-05,0.0,0 STARLINK-5480,1 55664U 23021AN  23170.42289377  .00002620  00000-0  23556-4 0  9994,2 55664  69.9984 167.8977 0003100 265.6194  94.4648 15.69918240 19948,6737.268,91.725,361.221,357.044,0.0
55664.0,STARLINK-5480,PAYLOAD,2023-06-19 23:54:44,15.69925308,0.0003309,69.9981,166.2859,262.6354,97.4466,-1.5569e-06,-4e-06,0.0,0 STARLINK-5480,1 55664U 23021AN  23170.99634366 -.00000400  00000-0 -15569-5 0  9990,2 55664  69.9981 166.2859 0003309 262.6354  97.4466 15.69925308 19723,6737.248,91.724,361.342,356.883,0.0
55664.0,STARLINK-5480,PAYLOAD,2023-06-20 06:01:44,15.6993204,0.0003387,69.9978,165.5693,261.6769,98.4043,6.6651e-06,5.89e-06,0.0,0 STARLINK-5480,1 55664U 23021AN  23171.25120392  .00000589  00000-0  66651-5 0  9993,2 55664  69.9978 165.5693 0003387 261.6769  98.4043 15.69932040 19769,6737.228,91.724,361.375,356.812,0.0
55664.0,STARLINK-5480,PAYLOAD,2023-06-21 01:54:31,15.69921407,0.0003226,69.9983,163.2404,261.8566,98.2264,1.0385e-05,1.036e-05,0.0,0 STARLINK-5480,1 55664U 23021AN  23172.07952759  .00001036  00000-0  10385-4 0  9994,2 55664  69.9983 163.2404 0003226 261.8566  98.2264 15.69921407 19891,6737.259,91.724,361.297,356.95,0.0
55664.0,STARLINK-5480,PAYLOAD,2023-06-21 09:33:16,15.69924941,0.0003214,69.9978,162.3423,260.5045,99.5788,4.5892e-06,3.39e-06,0.0,0 STARLINK-5480,1 55664U 23021AN  23172.39810848  .00000339  00000-0  45892-5 0  9998,2 55664  69.9978 162.3423 0003214 260.5045  99.5788 15.69924941 20254,6737.249,91.724,361.279,356.948,0.0
